STARLINK-30577          
1 58053U 23158C   26068.25106188 -.00002836  00000+0 -93606-4 0  9991
2 58053  42.9982  29.4411 0001363 253.5054 106.5648 15.27566560133500
OTTER                   
1 62623U 25009Q   26068.72300813  .00012198  00000+0  45151-3 0  9990
2 62623  97.4065 151.3812 0003573 310.7710  49.3219 15.27809545 63722
